{"type": "FeatureCollection", "features": [ {"type": "Feature", "properties": {"norad_id": 66577, "name": "STARLINK-35815", "group": "last-30-days", "lat": -39.97937769123062, "lon": 76.02364545511803, "alt_km": 417.17719180797394, "timestamp": "2025-12-09T11:33:53.575841+00:00", "meta": {"OBJECT_NAME": "STARLINK-35815", "OBJECT_ID": "2025-268W", "EPOCH": "2025-12-09T04:00:01.998720", "MEAN_MOTION": 15.50593756, "ECCENTRICITY": 0.0001917, "INCLINATION": 43.0008, "RA_OF_ASC_NODE": 141.9974, "ARG_OF_PERICENTER": 265.7833, "MEAN_ANOMALY": 62.3144, "EPHEMERIS_TYPE": 0, "CLASSIFICATION_TYPE": "U", "NORAD_CAT_ID": 66577, "ELEMENT_SET_NO": 999, "REV_AT_EPOCH": 409, "BSTAR": -0.0014397, "MEAN_MOTION_DOT": -0.00083953, "MEAN_MOTION_DDOT": 0}, "tle": {"line1": "1 66577U 25268W   25343.16668980 -.00083953  00000+0 -14397-2 0  9990", "line2": "2 66577  43.0008 141.9974 0001917 265.7833  62.3144 15.50593756  4094"}}, "geometry": {"type": "Point", "coordinates": [76.02364545511803, -39.97937769123062]}}, {"type": "Feature", "properties": {"norad_id": 66578, "name": "STARLINK-35743", "group": "last-30-days", "lat": -39.38526384848694, "lon": 78.38467019526013, "alt_km": 417.144126319924, "timestamp": "2025-12-09T11:33:53.575851+00:00", "meta": {"OBJECT_NAME": "STARLINK-35743", "OBJECT_ID": "2025-268X", "EPOCH": "2025-12-09T04:00:01.998720", "MEAN_MOTION": 15.50595373, "ECCENTRICITY": 0.0001925, "INCLINATION": 43.0008, "RA_OF_ASC_NODE": 141.9915, "ARG_OF_PERICENTER": 267.8925, "MEAN_ANOMALY": 62.1232, "EPHEMERIS_TYPE": 0, "CLASSIFICATION_TYPE": "U", "NORAD_CAT_ID": 66578, "ELEMENT_SET_NO": 999, "REV_AT_EPOCH": 409, "BSTAR": -0.0014875, "MEAN_MOTION_DOT": -0.00086698, "MEAN_MOTION_DDOT": 0}, "tle": {"line1": "1 66578U 25268X   25343.16668980 -.00086698  00000+0 -14875-2 0  9991", "line2": "2 66578  43.0008 141.9915 0001925 267.8925  62.1232 15.50595373  4097"}}, "geometry": {"type": "Point", "coordinates": [78.38467019526013, -39.38526384848694]}}, {"type": "Feature", "properties": {"norad_id": 66579, "name": "STARLINK-35868", "group": "last-30-days", "lat": -38.74414578976905, "lon": 80.70432775739158, "alt_km": 417.08442787823697, "timestamp": "2025-12-09T11:33:53.575861+00:00", "meta": {"OBJECT_NAME": "STARLINK-35868", "OBJECT_ID": "2025-268Y", "EPOCH": "2025-12-09T04:00:01.998720", "MEAN_MOTION": 15.50594787, "ECCENTRICITY": 0.0002027, "INCLINATION": 43.0007, "RA_OF_ASC_NODE": 141.9865, "ARG_OF_PERICENTER": 266.2491, "MEAN_ANOMALY": 65.6834, "EPHEMERIS_TYPE": 0, "CLASSIFICATION_TYPE": "U", "NORAD_CAT_ID": 66579, "ELEMENT_SET_NO": 999, "REV_AT_EPOCH": 409, "BSTAR": -0.0014752, "MEAN_MOTION_DOT": -0.00085994, "MEAN_MOTION_DDOT": 0}, "tle": {"line1": "1 66579U 25268Y   25343.16668980 -.00085994  00000+0 -14752-2 0  9994", "line2": "2 66579  43.0007 141.9865 0002027 266.2491  65.6834 15.50594787  4090"}}, "geometry": {"type": "Point", "coordinates": [80.70432775739158, -38.74414578976905]}}, {"type": "Feature", "properties": {"norad_id": 66580, "name": "STARLINK-35872", "group": "last-30-days", "lat": -38.058352648717396, "lon": 82.98082461800115, "alt_km": 417.1918738615386, "timestamp": "2025-12-09T11:33:53.575875+00:00", "meta": {"OBJECT_NAME": "STARLINK-35872", "OBJECT_ID": "2025-268Z", "EPOCH": "2025-12-09T04:00:01.998720", "MEAN_MOTION": 15.50593514, "ECCENTRICITY": 0.0001884, "INCLINATION": 43.0007, "RA_OF_ASC_NODE": 141.9825, "ARG_OF_PERICENTER": 262.9989, "MEAN_ANOMALY": 70.8498, "EPHEMERIS_TYPE": 0, "CLASSIFICATION_TYPE": "U", "NORAD_CAT_ID": 66580, "ELEMENT_SET_NO": 999, "REV_AT_EPOCH": 409, "BSTAR": -0.0014211, "MEAN_MOTION_DOT": -0.00082879, "MEAN_MOTION_DDOT": 0}, "tle": {"line1": "1 66580U 25268Z   25343.16668980 -.00082879  00000+0 -14211-2 0  9995", "line2": "2 66580  43.0007 141.9825 0001884 262.9989  70.8498 15.50593514  4094"}}, "geometry": {"type": "Point", "coordinates": [82.98082461800115, -38.058352648717396]}}, {"type": "Feature", "properties": {"norad_id": 66581, "name": "STARLINK-35744", "group": "last-30-days", "lat": -37.32818955434296, "lon": 85.21477205018437, "alt_km": 417.13699173625355, "timestamp": "2025-12-09T11:33:53.575887+00:00", "meta": {"OBJECT_NAME": "STARLINK-35744", "OBJECT_ID": "2025-268AA", "EPOCH": "2025-12-09T04:00:01.998720", "MEAN_MOTION": 15.50596256, "ECCENTRICITY": 0.0001951, "INCLINATION": 43.0005, "RA_OF_ASC_NODE": 141.9768, "ARG_OF_PERICENTER": 263.2915, "MEAN_ANOMALY": 72.4742, "EPHEMERIS_TYPE": 0, "CLASSIFICATION_TYPE": "U", "NORAD_CAT_ID": 66581, "ELEMENT_SET_NO": 999, "REV_AT_EPOCH": 404, "BSTAR": -0.0015012, "MEAN_MOTION_DOT": -0.00087492, "MEAN_MOTION_DDOT": 0}, "tle": {"line1": "1 66581U 25268AA  25343.16668980 -.00087492  00000+0 -15012-2 0  9992", "line2": "2 66581  43.0005 141.9768 0001951 263.2915  72.4742 15.50596256  4048"}}, "geometry": {"type": "Point", "coordinates": [85.21477205018437, -37.32818955434296]}}, {"type": "Feature", "properties": {"norad_id": 66582, "name": "STARLINK-35746", "group": "last-30-days", "lat": -36.557884538399875, "lon": 87.4022554762189, "alt_km": 417.0969128337547, "timestamp": "2025-12-09T11:33:53.575899+00:00", "meta": {"OBJECT_NAME": "STARLINK-35746", "OBJECT_ID": "2025-268AB", "EPOCH": "2025-12-09T04:00:01.998720", "MEAN_MOTION": 15.50592796, "ECCENTRICITY": 0.0001963, "INCLINATION": 43.0005, "RA_OF_ASC_NODE": 141.9718, "ARG_OF_PERICENTER": 264.8167, "MEAN_ANOMALY": 72.8676, "EPHEMERIS_TYPE": 0, "CLASSIFICATION_TYPE": "U", "NORAD_CAT_ID": 66582, "ELEMENT_SET_NO": 999, "REV_AT_EPOCH": 409, "BSTAR": -0.0014127, "MEAN_MOTION_DOT": -0.00082397, "MEAN_MOTION_DDOT": 0}, "tle": {"line1": "1 66582U 25268AB  25343.16668980 -.00082397  00000+0 -14127-2 0  9998", "line2": "2 66582  43.0005 141.9718 0001963 264.8167  72.8676 15.50592796  4093"}}, "geometry": {"type": "Point", "coordinates": [87.4022554762189, -36.557884538399875]}}, {"type": "Feature", "properties": {"norad_id": 66583, "name": "STARLINK-35941", "group": "last-30-days", "lat": -35.74828770523993, "lon": 89.54729901693293, "alt_km": 417.03273903209174, "timestamp": "2025-12-09T11:33:53.575909+00:00", "meta": {"OBJECT_NAME": "STARLINK-35941", "OBJECT_ID": "2025-268AC", "EPOCH": "2025-12-09T04:00:01.998720", "MEAN_MOTION": 15.50592018, "ECCENTRICITY": 0.0002039, "INCLINATION": 43.0008, "RA_OF_ASC_NODE": 141.9681, "ARG_OF_PERICENTER": 265.1044, "MEAN_ANOMALY": 74.4964, "EPHEMERIS_TYPE": 0, "CLASSIFICATION_TYPE": "U", "NORAD_CAT_ID": 66583, "ELEMENT_SET_NO": 999, "REV_AT_EPOCH": 409, "BSTAR": -0.0013889, "MEAN_MOTION_DOT": -0.00081027, "MEAN_MOTION_DDOT": 0}, "tle": {"line1": "1 66583U 25268AC  25343.16668980 -.00081027  00000+0 -13889-2 0  9992", "line2": "2 66583  43.0008 141.9681 0002039 265.1044  74.4964 15.50592018  4094"}}, "geometry": {"type": "Point", "coordinates": [89.54729901693293, -35.74828770523993]}}, {"type": "Feature", "properties": {"norad_id": 66584, "name": "STARLINK-35939", "group": "last-30-days", "lat": -34.901901456921145, "lon": 91.64378286501285, "alt_km": 417.0509124362243, "timestamp": "2025-12-09T11:33:53.575919+00:00", "meta": {"OBJECT_NAME": "STARLINK-35939", "OBJECT_ID": "2025-268AD", "EPOCH": "2025-12-09T04:00:01.998720", "MEAN_MOTION": 15.50587844, "ECCENTRICITY": 0.0002016, "INCLINATION": 43.0006, "RA_OF_ASC_NODE": 141.9628, "ARG_OF_PERICENTER": 263.0909, "MEAN_ANOMALY": 78.4249, "EPHEMERIS_TYPE": 0, "CLASSIFICATION_TYPE": "U", "NORAD_CAT_ID": 66584, "ELEMENT_SET_NO": 999, "REV_AT_EPOCH": 409, "BSTAR": -0.0012285, "MEAN_MOTION_DOT": -0.0007178, "MEAN_MOTION_DDOT": 0}, "tle": {"line1": "1 66584U 25268AD  25343.16668980 -.00071780  00000+0 -12285-2 0  9997", "line2": "2 66584  43.0006 141.9628 0002016 263.0909  78.4249 15.50587844  4097"}}, "geometry": {"type": "Point", "coordinates": [91.64378286501285, -34.901901456921145]}}, {"type": "Feature", "properties": {"norad_id": 66585, "name": "STARLINK-35963", "group": "last-30-days", "lat": -34.01888380186678, "lon": 93.69994831762784, "alt_km": 416.99901183218026, "timestamp": "2025-12-09T11:33:53.575931+00:00", "meta": {"OBJECT_NAME": "STARLINK-35963", "OBJECT_ID": "2025-268AE", "EPOCH": "2025-12-09T04:00:01.998720", "MEAN_MOTION": 15.50594434, "ECCENTRICITY": 0.0001809, "INCLINATION": 43.0005, "RA_OF_ASC_NODE": 141.958, "ARG_OF_PERICENTER": 275.1877, "MEAN_ANOMALY": 68.2472, "EPHEMERIS_TYPE": 0, "CLASSIFICATION_TYPE": "U", "NORAD_CAT_ID": 66585, "ELEMENT_SET_NO": 999, "REV_AT_EPOCH": 409, "BSTAR": -0.0014472, "MEAN_MOTION_DOT": -0.00084385, "MEAN_MOTION_DDOT": 0}, "tle": {"line1": "1 66585U 25268AE  25343.16668980 -.00084385  00000+0 -14472-2 0  9993", "line2": "2 66585  43.0005 141.9580 0001809 275.1877  68.2472 15.50594434  4099"}}, "geometry": {"type": "Point", "coordinates": [93.69994831762784, -34.01888380186678]}}, {"type": "Feature", "properties": {"norad_id": 66586, "name": "TJS-21", "group": "last-30-days", "lat": 62.93646301345965, "lon": -97.60868657147552, "alt_km": 37938.37240948367, "timestamp": "2025-12-09T11:33:53.575944+00:00", "meta": {"OBJECT_NAME": "TJS-21", "OBJECT_ID": "2025-269A", "EPOCH": "2025-12-07T17:43:38.148672", "MEAN_MOTION": 2.00608507, "ECCENTRICITY": 0.6806665, "INCLINATION": 63.2904, "RA_OF_ASC_NODE": 162.9189, "ARG_OF_PERICENTER": 269.7757, "MEAN_ANOMALY": 18.6616, "EPHEMERIS_TYPE": 0, "CLASSIFICATION_TYPE": "U", "NORAD_CAT_ID": 66586, "ELEMENT_SET_NO": 999, "REV_AT_EPOCH": 33, "BSTAR": 3.2363, "MEAN_MOTION_DOT": 1.641e-05, "MEAN_MOTION_DDOT": 0}, "tle": {"line1": "1 66586U 25269A   25341.73863598  .00001641  00000+0  32363+1 0  9997", "line2": "2 66586  63.2904 162.9189 6806665 269.7757  18.6616  2.00608507   335"}}, "geometry": {"type": "Point", "coordinates": [-97.60868657147552, 62.93646301345965]}}]}